GF Application Submitted to DoITT (A),CBL Link ID,Latitude,Longitude,Borough,Zoning,Council District,Community Board,Street Address,Cross_Street 1,Cross_Street 2,Corner_location,Postcode,BID,Site in Business Improvement District (BID)?,Link In Historic District,NTA,GF Permit_Appl_Id,GF DoITT Submitted to CB (A),GF CB Comment Period Ends (A),DoITT NTP Issued (A),BIN,BBL,Census Tract,Location 1
10/05/2016,LINK-005418,40.57739,-74.10267,Staten Island,C2-1,50,502,2154A Hylan Blvd,ZWICKY AVE,MIDLAND AVE,SE,10306,,No,N,New Dorp-Midland Beach,81719,02/14/2017,04/15/2017,04/11/2018,5053558,5036910011,5011202,"(40.57739083, -74.10267054)"
08/16/2017,LINK-022690,40.67092,-73.99176,Brooklyn,M2-1,39,306,200 10th Street,3rd Ave,2nd Ave,SW,11215,,No,N,Park Slope-Gowanus,82196,12/05/2017,02/03/2018,,,3010140044,3012100,"(40.67091755, -73.99176131)"
08/16/2017,LINK-022691,40.66481,-73.98983,Brooklyn,C4-3A,39,307,577 5th Ave,16th Ave,Prospect Ave,SE,11215,Park Slope 5th Avenue,Yes,N,Park Slope-Gowanus,82197,12/01/2017,01/30/2018,,,3010530015,3014100,"(40.664812614170216, -73.98982589203763)"
10/11/2017,LINK-023019,40.80503,-73.93508,Manhattan,C1-4,9,111,174 east 127 street,Lexington Ave,3rd Ave,NW,10035,,No,N,East Harlem North,82423,02/02/2018,04/03/2018,,,1017750040,1024200,"(40.805034, -73.935083)"
08/16/2017,LINK-023020,40.68395,-73.96910,Brooklyn,C2-3,35,302,452 Clermont Ave,Fulton St,Atlantic Ave,SW,11238,Fulton Area,Yes,N,Fort Greene,82199,12/14/2017,02/12/2018,,,3020080013,3017900,"(40.68395193, -73.96910219)"
08/30/2017,LINK-023025,40.65180,-74.01065,Brooklyn,M1-2,38,307,4224 3 AVENUE,43 STREET,GOWANUS EXPRESSWAY,NW,11232,,No,N,Sunset Park West,82272,12/01/2017,01/30/2018,,,3007220043,3000200,"(40.65179654, -74.01064718)"
08/30/2017,LINK-023028,40.64961,-74.01292,Brooklyn,M1-2D,38,307,4620 3rd Avenue,47th Street,46th Street,NW,11220,,No,N,Sunset Park West,82274,12/01/2017,01/30/2018,,,3007540045,3000200,"(40.64961065, -74.01292424)"
08/30/2017,LINK-023029,40.64883,-74.01374,Brooklyn,M1-2D,38,307,274 48TH Street,48 STREET,49 STREET,SW,11220,,No,N,Sunset Park West,82285,12/01/2017,01/30/2018,,,3007720035,3002000,"(40.64882581, -74.01374045)"
08/30/2017,LINK-023030,40.64843,-74.01440,Brooklyn,M1-2D,38,307,284 49 STREET,2 AVENUE,GOWANUS EXPRESSWAY,SW,11220,,No,N,Sunset Park West,82282,12/01/2017,01/30/2018,,,3007810039,3002000,"(40.64842558, -74.01440402)"
08/30/2017,LINK-023033,40.65472,-74.00692,Brooklyn,M1-2D,38,307,969 3 ave,37th Street,38th Street,SE,11232,,No,N,Sunset Park West,82283,12/01/2017,01/30/2018,,,3007000007,3008400,"(40.65471658, -74.00691763)"
09/15/2017,LINK-023035,40.64732,-74.01531,Brooklyn,M1-2D,38,307,5024 3rd Avenue,51st Street,50th Street,NW,11220,,No,N,Sunset Park West,82317,12/01/2017,01/30/2018,,,3007890046,3002000,"(40.64731995, -74.01530976)"
08/30/2017,LINK-023036,40.64668,-74.01604,Brooklyn,M1-2D,38,307,284 52 street,3rd Ave,2nd Ave,SW,11220,,No,N,Sunset Park West,82277,12/01/2017,01/30/2018,,,3008050045,3002000,"(40.64667991, -74.01604393)"
08/30/2017,LINK-023038,40.65512,-74.00650,Brooklyn,M1-2D,38,307,951 3 AVENUE,36 STREET,37 STREET,SE,11232,,No,N,Sunset Park West,82276,12/01/2017,01/30/2018,,,3006960012,3008400,"(40.65512316, -74.00649619)"
09/15/2017,LINK-018052,40.69323,-73.99075,Brooklyn,C5-2A,33,302,26 Court St,Montague St,Remsen St,NW,11201,,No,Y,Brooklyn Heights-Cobble Hill,81656,12/14/2017,02/12/2018,,3002094,3002500001,3000900,"(40.693232, -73.99075)"
09/28/2016,LINK-018372,40.78540,-73.94934,Manhattan,C1-5,5,111,1710 3rd Ave,E 96th St,E 97th St,NW,10029,,No,N,East Harlem South,81630,02/02/2018,04/03/2018,,1082901,1016240033,1015802,"(40.78540009, -73.9493395)"
09/28/2016,LINK-018374,40.80037,-73.93810,Manhattan,C4-4D,8,111,2201 3 AVENUE,EAST 120 STREET,EAST 119 STREET,SE,10035,,No,N,East Harlem North,81631,10/03/2016,12/02/2016,,1054564,1017840045,1019400,"(40.80037311004839, -73.93809872282071)"
09/16/2016,LINK-018411,40.58949,-74.10127,Staten Island,C1-1,50,502,1660 Richmond Rd,Buel Ave,Liberty Ave,NE,10304,,No,N,Old Town-Dongan Hills-South Beach,81709,02/14/2017,04/15/2017,04/11/2018,5050551,5035300001,5011401,"(40.58948831, -74.10127071)"
09/01/2017,LINK-019311,40.86199,-73.89334,Bronx,C4-4,15,207,331 East Fordham Road,Bainbridge Avenue,Marion Avenue,NE,10458,Fordham Road,Yes,N,Bedford Park-Fordham North,82280,11/03/2017,01/02/2018,,2016586,2032860001,2039901,"(40.86199370286963, -73.89333731502973)"
09/28/2017,LINK-020293,40.84562,-73.93875,Manhattan,C1-4,10,112,4121 BROADWAY,WEST 174 STREET,WEST 175 STREET,NW,10033,,No,N,Washington Heights South,82361,02/16/2018,04/17/2018,,,1021420244,1026300,"(40.84561735584089, -73.93874610692421)"
09/28/2017,LINK-020296,40.84164,-73.93911,Manhattan,C2-4,10,112,565 WEST 169 STREET,WEST 169 STREET,BROADWAY,NE,10032,,No,N,Washington Heights South,82418,02/16/2018,04/17/2018,,,1021260001,1025300,"(40.84164226, -73.93911127)"
12/12/2017,LINK-020304,40.86022,-73.92876,Manhattan,C1-4,10,112,68 NAGLE AVENUE,ELLWOOD STREET,Hillside Avenue,NW,10040,,No,N,Washington Heights North,82554,02/16/2018,04/17/2018,,,1021720056,1028500,"(40.860223425618436, -73.92875503695893)"
10/11/2017,LINK-020405,40.72879,-74.00029,Manhattan,C1-5,1,102,169 BLEECKER STREET,SULLIVAN STREET,THOMPSON STREET,NE,10012,,No,Y,West Village,82409,12/15/2017,02/13/2018,,,1005390042,1006500,"(40.72878718, -74.000292)"
09/28/2017,LINK-020410,40.78696,-73.95448,Manhattan,C1-5,4,108,1366 MADISON AVENUE,95th St,96th St,MIDBLOCK,10128,,No,Y,Upper East Side-Carnegie Hill,82367,01/10/2018,03/11/2018,,,1015070056,1016001,"(40.78696469, -73.95448023)"
09/28/2017,LINK-020411,40.79117,-73.95141,Manhattan,C2-5,8,111,1490 Madison Ave,102nd St,103rd St,NE,10029,,No,N,East Harlem South,82378,02/02/2018,04/03/2018,,,1016080017,1016800,"(40.79117041, -73.95140762)"
07/28/2017,LINK-020413,40.72426,-74.00500,Manhattan,M1-6,3,102,121 6 AVENUE,6 AVE,BROOME STREET,SW,10013,Hudson Square,Yes,N,SoHo-TriBeCa-Civic Center-Little Italy,82092,12/15/2017,02/13/2018,,,1004777501,1003700,"(40.72426124, -74.00499516)"
07/28/2017,LINK-020415,40.77542,-73.95029,Manhattan,C1-9,5,108,1608 1 Ave,E 84th,E 83rd,MIDBLOCK,10028,,No,N,Yorkville,82058,10/02/2017,12/01/2017,,1085139,1015630004,1013600,"(40.77541825, -73.9502902)"
07/05/2017,LINK-020420,40.71288,-74.00987,Manhattan,C5-3,1,101,45 BARCLAY STREET,Church St,W Broadway,NW,10007,Alliance for Downtown NY,Yes,N,SoHo-TriBeCa-Civic Center-Little Italy,82038,12/15/2017,02/13/2018,,1001409,1001250020,1002100,"(40.71288051664392, -74.00986574790716)"
09/28/2017,LINK-020425,40.77957,-73.97736,Manhattan,C1-8A,6,107,322 COLUMBUS AVENUE,WEST 76 STREET,WEST 75 STREET,,10023,Columbus Avenue,Yes,Y,Upper West Side,82363,02/02/2018,04/03/2018,,,1011470030,1016100,"(40.77956501, -73.97735812)"
10/11/2017,LINK-020430,40.73721,-74.00139,Manhattan,C2-7,3,102,76 GREENWICH AVENUE,BANK STREET,WEST 12 STREET,SW,10011,,No,Y,West Village,82412,12/15/2017,02/13/2018,,,1006170001,1007700,"(40.737210985126, -74.00139398005945)"
10/10/2017,LINK-020432,40.72950,-74.00491,Manhattan,C2-6,3,102,75 Carmine St.,7 AVE,BEDFORD ST,SE,10014,,No,N,West Village,82407,12/15/2017,02/13/2018,,,1005287501,1006700,"(40.72949854523542, -74.00490615936337)"
10/10/2017,LINK-020435,40.73014,-74.00467,Manhattan,C2-6,3,102,15 7th Ave S,LEROY ST,CARMINE ST,SE,10014,,No,N,West Village,82408,12/15/2017,02/13/2018,,,1005820026,1006700,"(40.73014393, -74.00466812)"
07/05/2017,LINK-020440,40.72167,-74.00554,Manhattan,C6-2A,1,101,7 LAIGHT STREET,6TH AVENUE,ST JOHNS LANE,SW,10013,,No,N,SoHo-TriBeCa-Civic Center-Little Italy,82019,12/15/2017,02/13/2018,,1002736,1002127503,1003300,"(40.721666604609894, -74.00553964159735)"
07/05/2017,LINK-020442,40.71052,-74.01102,Manhattan,C5-5,1,101,19 CHURCH STREET,Cortlandt St,Dey St,NE,10007,Alliance for Downtown NY,Yes,N,Battery Park City-Lower Manhattan,82035,12/15/2017,02/13/2018,,1001070,1000630006,1001300,"(40.71052357, -74.01101868)"
10/10/2017,LINK-020445,40.72225,-74.00572,Manhattan,M1-6,1,102,417 CANAL STREET,SULLIVAN ST,6 AVE,NW,10013,,No,N,SoHo-TriBeCa-Civic Center-Little Italy,82405,12/15/2017,02/13/2018,,,1002270080,1003700,"(40.72225239644781, -74.00571676370703)"
10/11/2017,LINK-020446,40.73339,-73.99317,Manhattan,C1-7,2,102,81 UNIVERSITY PLACE,E 11 St,E 12 St,NE,10003,Village,Yes,N,West Village,82414,12/15/2017,02/13/2018,,,1005630001,1006100,"(40.73339176797631, -73.99316633887923)"
06/30/2017,LINK-020458,40.70668,-74.01250,Manhattan,C5-5,1,101,56 BROADWAY,Exchange Pl,Morris Ave,,10004,Alliance for Downtown NY,Yes,N,Battery Park City-Lower Manhattan,82010,12/15/2017,02/13/2018,,1000814,1000220028,1000900,"(40.70667684, -74.01249715)"
10/06/2017,LINK-020477,40.72245,-73.99940,Manhattan,M1-5B,1,102,503 BROADWAY,Spring St,Broome St,MIDBLOCK,10012,SoHo Broadway,Yes,Y,SoHo-TriBeCa-Civic Center-Little Italy,82390,12/15/2017,02/13/2018,,,1004847502,1004900,"(40.72245337, -73.999404)"
10/11/2017,LINK-020481,40.73491,-74.00020,Manhattan,C1-6,3,102,33 GREENWICH AVENUE,W 10 STREET,CHARLES STREET,NW,10014,,No,Y,West Village,82416,12/15/2017,02/13/2018,,,1006110065,1007100,"(40.734912218005164, -74.00020406274791)"
10/18/2017,LINK-020486,40.80034,-73.93565,Manhattan,C1-5,8,111,251 EAST 121 STREET,2 AVENUE,3 AVENUE,,10035,,No,N,East Harlem North,82450,02/02/2018,04/03/2018,,,1017860022,1019400,"(40.80033926, -73.93565326)"
02/14/2018,LINK-020511,40.81610,-73.91114,Bronx,C2-4,17,201,589 WESTCHESTER AVENUE,EAGLE AVE,ST. ANNS AVE,SE,10455,,No,N,Melrose South-Mott Haven North,82620,03/09/2018,05/08/2018,,,2026170092,2007500,"(40.8160996135907, -73.91113780839152)"
02/14/2018,LINK-020512,40.81623,-73.91197,Bronx,C2-4,17,201,633 ST ANN'S AVENUE,WESTCHESTER AVE,RAE STREET,NW,10455,,No,N,Melrose South-Mott Haven North,82617,03/09/2018,05/08/2018,,,2023590130,2007100,"(40.81623483130348, -73.91196922997528)"
02/14/2018,LINK-020520,40.81870,-73.90386,Bronx,C2-4,17,201,785 WESTCHESTER AVENUE,UNION AVE,TINTON AVE,NW,10456,,No,N,Melrose South-Mott Haven North,82626,03/09/2018,05/08/2018,,,2026550022,2007700,"(40.818696163833515, -73.90385547737219)"
02/14/2018,LINK-020545,40.81587,-73.90894,Bronx,C2-4,8,201,642 WESTCHESTER AVENUE,TRINITY AVE,JACKSON AVE,SE,10455,,No,N,Melrose South-Mott Haven North,82627,03/09/2018,05/08/2018,,,2026230191,2007300,"(40.81586572113827, -73.90894427555725)"
08/21/2017,LINK-021185,40.69767,-73.93634,Brooklyn,C2-3,34,304,913 BROADWAY,ARION PLACE,STOCKTON STREET,SE,11206,,No,N,Bushwick South,82212,11/16/2017,01/15/2018,,3071870,3031500005,3038900,"(40.69767293, -73.93633623)"
10/11/2017,LINK-020556,40.83346,-73.91408,Bronx,C1-4,16,204,1220 MORRIS AVENUE,MORRIS AVENUE,EAST 167 STREET,,10456,,No,N,East Concourse-Concourse Village,82428,02/16/2018,04/17/2018,,,2024500056,2017901,"(40.83345606936106, -73.91408029605742)"
11/08/2017,LINK-020591,40.81541,-73.91584,Bronx,C4-4,17,201,459 E 149TH STREET,BERGEN AVE,BROOK AVE,MIDBLOCK,10455,,No,N,Melrose South-Mott Haven North,82494,03/09/2018,05/08/2018,,,2022947501,2007100,"(40.81540713759997, -73.91583512596657)"
10/19/2017,LINK-020895,40.75770,-73.86165,Queens,C2-4,21,403,107-06 Northern Blvd,107th St,108th St,SE,11368,,No,N,North Corona,82433,01/19/2018,03/20/2018,,,4017220001,4038100,"(40.75770476140368, -73.86164631935361)"
10/19/2017,LINK-020904,40.75777,-73.85992,Queens,C2-4,21,403,109-10 Northern Blvd,109th St,110th St,SW,11368,,No,N,North Corona,82434,01/19/2018,03/20/2018,,,4017240007,4038100,"(40.75776591, -73.85992172)"
11/16/2017,LINK-020888,40.75424,-73.82804,Queens,C1-2,20,407,135-77 FRANKLIN AVENUE,Main St,Saul St,NW,11355,,No,N,Flushing,82506,01/19/2018,03/20/2018,,,4051220029,4085300,"(40.75423936454663, -73.82803991275392)"
06/21/2017,LINK-020891,40.75535,-73.88642,Queens,C1-2,25,403,80-28 Northern Boulevard,81 St,80 St,,11372,,No,N,Jackson Heights,81985,07/19/2017,09/17/2017,,4028773,4012530001,4028500,"(40.7553507, -73.88641871)"
10/23/2017,LINK-020897,40.75776,-73.86550,Queens,C2-4,21,403,103-01 Northern Boulevard,103rd St,104th St,NE,11369,,No,N,East Elmhurst,82454,01/19/2018,03/20/2018,,,4016980047,4036500,"(40.75775573896283, -73.86549842562403)"
11/20/2017,LINK-020901,40.76039,-73.84571,Queens,C4-4,21,407,33-01 126 Street,Northern Blvd,Shea Rd,NE,11368,,No,N,park-cemetery-etc-Queens,82507,01/19/2018,03/20/2018,,,4018200001,4038301,"(40.760390197870166, -73.84571148497025)"
10/06/2017,LINK-020923,40.75249,-73.93243,Queens,M1-3/R7X,26,401,32-03 39th Ave,31 ST,32 ST,NW,11101,,No,N,Queensbridge-Ravenswood-Long Island City,82386,12/01/2017,01/30/2018,,,4003820029,4003100,"(40.75249045556027, -73.93243219555336)"
10/30/2017,LINK-020938,40.75073,-73.85899,Queens,C1-4,21,403,39-24 108th St,108th St,104th St,NW,11368,,No,N,North Corona,82464,01/19/2018,03/20/2018,,,4017760039,4040300,"(40.750729417916425, -73.85899073242206)"
10/19/2017,LINK-020941,40.75707,-73.86953,Queens,C2-4,21,403,33-10 99 street,Northern Blvd,34th Ave,SW,11368,,No,N,North Corona,82445,01/19/2018,03/20/2018,,,4017130010,4037700,"(40.75706684230285, -73.86953078864042)"
10/11/2017,LINK-020954,40.74436,-73.91471,Queens,C1-4,26,402,43-02 50 STREET,43 AVENUE,QUEENS BOULEVARD,,11377,,No,N,Hunters Point-Sunnyside-West Maspeth,82451,11/03/2017,01/02/2018,,4001288,4001380024,4025301,"(40.74435567184827, -73.91471298684007)"
10/30/2017,LINK-020955,40.75143,-73.85922,Queens,C1-4,21,403,39-06 108th St,39th Ave,Roosevelt Ave,SW,11368,,No,N,North Corona,82465,01/19/2018,03/20/2018,,,4017767501,4040300,"(40.75142587, -73.85922041)"
10/30/2017,LINK-020956,40.75244,-73.85973,Queens,C1-4,21,403,37-58 108th St,37th Dr,38th Ave,NW,11368,,No,N,North Corona,82466,01/19/2018,03/20/2018,,,4017740040,4040300,"(40.7524357743973, -73.85972891228585)"
10/19/2017,LINK-020963,40.77319,-73.90691,Queens,C2-3,22,401,38-00 Ditmars Blvd on 38 Street,DITMARS BLVD,23 AVE,SE,11105,,No,N,Steinway,82437,12/01/2017,01/30/2018,,,4008050032,4011900,"(40.77318843431351, -73.9069075316147)"
11/16/2017,LINK-020966,40.75190,-73.82627,Queens,C2-2,20,407,43-25 Main St,Dahlia Ave,Cherry Ave,NE,11355,,No,N,Flushing,82504,01/19/2018,03/20/2018,,,4051400058,4079701,"(40.75190356, -73.8262691)"
11/16/2017,LINK-020967,40.75603,-73.82865,Queens,C1-2,20,407,41-70 Main St,Maple Ave,Sanford Ave,MIDBLOCK,11355,,No,N,Flushing,82505,01/19/2018,03/20/2018,,,4051210020,4084900,"(40.756028162982034, -73.82864883790984)"
10/23/2017,LINK-020973,40.75730,-73.86782,Queens,C2-4,21,403,100-18 Northern Blvd,101st St,100th St,SW,11368,,No,N,North Corona,82455,01/19/2018,03/20/2018,,,4017150008,4037700,"(40.75730069, -73.86781689)"
10/23/2017,LINK-020988,40.77543,-73.91450,Queens,C1-3,22,401,28-02 23rd Ave,28 ST,29 ST,SE,11105,,No,N,Steinway,82459,12/01/2017,01/30/2018,,,4008430035,4011500,"(40.775434, -73.914498)"
10/23/2017,LINK-020991,40.77649,-73.91577,Queens,C1-3,22,401,26-01 23rd Ave,26 ST,27 ST,NE,11105,,No,N,Steinway,82461,12/01/2017,01/30/2018,,,4008560102,4010100,"(40.776492229994204, -73.91577131167412)"
10/19/2017,LINK-020992,40.75817,-73.85745,Queens,C2-4,21,403,112-15 Northern Blvd,112th St,112th Pl,NE,11369,,No,N,East Elmhurst,82439,01/19/2018,03/20/2018,,,4017067501,4037300,"(40.75817196, -73.85745426)"
10/19/2017,LINK-021001,40.75780,-73.86446,Queens,C2-4,21,403,104-1 Northern Boulevard,104th St,105th St,NE,11369,,No,N,East Elmhurst,82440,01/19/2018,03/20/2018,,,4016990043,4036500,"(40.75779521897306, -73.8644595732788)"
10/19/2017,LINK-021015,40.75788,-73.85812,Queens,C2-4,21,403,111-12 Northern Blvd,111th St,112th St,SE,11368,,No,N,North Corona,82442,01/19/2018,03/20/2018,,,4017260005,4038100,"(40.75787918304756, -73.85812129165674)"
11/13/2017,LINK-021031,40.75757,-73.82804,Queens,C1-2,20,407,136-23 Sanford Avenue (on Kissena Blvd),Barclay Ave,Sanford Ave,SW,11355,,No,N,Flushing,82499,01/19/2018,03/20/2018,,,4050430032,4085300,"(40.75757176, -73.82803543)"
11/13/2017,LINK-021038,40.76196,-73.83124,Queens,C4-3,20,407,36-51 Main St,37th Ave,Northern Blvd,NE,11354,Downtown Flushing,Yes,N,Flushing,82497,01/19/2018,03/20/2018,,,4049770006,4086900,"(40.76196246, -73.83124471)"
07/12/2017,LINK-021065,40.74374,-73.95150,Queens,M1-4/R7A,26,402,10-51 48 Avenue,48 Ave,47 Rd,NW,11101,,No,N,Hunters Point-Sunnyside-West Maspeth,82048,11/03/2017,01/02/2018,,4000280,4000450022,4000700,"(40.74374245364877, -73.95149661474989)"
11/06/2017,LINK-021074,40.75727,-73.83412,Queens,C4-2,20,407,4022 College Point Blvd,40 Rd,Roosevelt Ave,NW,11354,,No,N,Flushing,82486,01/19/2018,03/20/2018,,,4050667501,4087100,"(40.75726607179531, -73.8341221841556)"
11/06/2017,LINK-021094,40.75901,-73.83467,Queens,C4-2,20,407,3752 College Point Blvd,39th Ave,37th Ave,NW,11354,,No,N,Flushing,82487,01/19/2018,03/20/2018,,,4049630075,4087100,"(40.75901188, -73.83467085)"
11/08/2017,LINK-021095,40.76029,-73.83507,Queens,C4-2,20,407,3630 College Point Blvd,37th Ave,36th Rd,NW,11354,,No,N,Flushing,82489,01/19/2018,03/20/2018,,,4049630085,4087100,"(40.76028801, -73.83506646)"
08/25/2017,LINK-021098,40.68532,-73.97543,Brooklyn,C6-4,35,302,625 Atlantic Avenue,S Elliot Place,Fort Greene Place,SW,11217,MetroTech,Yes,N,Fort Greene,82268,12/14/2017,02/12/2018,,,3020020001,3003500,"(40.68532405, -73.97543272)"
08/21/2017,LINK-021104,40.69641,-73.93409,Brooklyn,C2-3,34,304,984 BROADWAY,VERNON AVENUE,DITMARS STREET,SE,11221,,No,N,Bushwick South,82203,11/16/2017,01/15/2018,,3425064,3031930018,3039300,"(40.69640708, -73.93408552)"
09/07/2017,LINK-021108,40.70213,-73.93699,Brooklyn,M1-1,34,301,455 BUSHWICK AVENUE,COOK STREET,FLUSHING AVENUE,NE,11206,,No,N,Bushwick South,82286,11/16/2017,01/15/2018,,3000000,3031230002,3048500,"(40.70212685, -73.93698638)"
09/15/2017,LINK-021117,40.69860,-73.91991,Brooklyn,C2-3,37,304,1390 MYRTLE AVENUE,HARMAN STREET,GREENE AVENUE,SE,11237,,No,N,Bushwick North,82311,11/16/2017,01/15/2018,,,3032870001,3043100,"(40.698595, -73.91991)"
10/02/2017,LINK-021193,40.69091,-73.99611,Brooklyn,C1-3,33,302,311 HENRY STREET,Atlantic Avenue,State Street,NE,11201,Atlantic Avenue,Yes,Y,Brooklyn Heights-Cobble Hill,82351,12/14/2017,02/12/2018,,,3002750024,3000700,"(40.69091128953986, -73.9961101661388)"
09/15/2017,LINK-021129,40.69912,-73.91586,Brooklyn,C2-3,37,304,1493 MYRTLE AVENUE,MENAHAN STREET,GROVE STREET,NE,11237,,No,N,Bushwick North,82312,11/16/2017,01/15/2018,,3398663,3033180008,3043300,"(40.69911722, -73.91585918)"
09/15/2017,LINK-021131,40.69908,-73.91525,Brooklyn,C2-3,37,304,1480 MYRTLE AVENUE,MENAHAN STREET,GROVE STREET,SW,11237,,No,N,Bushwick North,82314,11/16/2017,01/15/2018,,3000000,3033170031,3043300,"(40.69908, -73.91525)"
08/21/2017,LINK-021133,40.70353,-73.94695,Brooklyn,C2-3,33,301,610 BROADWAY,WALTON STREET,MOORE STREET,,11206,,No,N,Bedford,82205,11/16/2017,01/15/2018,,3335406,3022517504,3050700,"(40.70353, -73.94695)"
10/11/2017,LINK-021146,40.68902,-73.99063,Brooklyn,C2-4,33,302,252 ATLANTIC AVENUE,BOERUM PLACE,SMITH STREET,SE,11201,Atlantic Avenue,Yes,N,DUMBO-Vinegar Hill-Downtown Brooklyn-Boerum Hill,82400,12/14/2017,02/12/2018,,,3001810001,3004300,"(40.68901511, -73.99063086)"
08/16/2017,LINK-021159,40.66883,-73.99308,Brooklyn,M1-2,39,306,531-533 3rd Ave,13th St,14th St.,SE,11215,,No,N,Park Slope-Gowanus,82184,12/05/2017,02/03/2018,,,3010330006,3011700,"(40.66883491, -73.99307618)"
09/07/2017,LINK-021169,40.70114,-73.93939,Brooklyn,C4-3,34,304,1 BEAVER STREET,FAYETTE STREET,FLUSHING AVENUE,SW,11206,,No,N,Bushwick South,82307,11/16/2017,01/15/2018,,3000000,3031310027,3038900,"(40.70113761, -73.93938911)"
08/30/2017,LINK-021171,40.63892,-73.96903,Brooklyn,C8-2,40,312,922 CORTELYOU ROAD,EAST 9 STREET,CONEY ISLAND AVENUE,SW,11218,,No,N,Kensington-Ocean Parkway,82264,10/13/2017,12/12/2017,,3126899,3053930007,3049200,"(40.63892264037609, -73.96903111788515)"
09/25/2017,LINK-021179,40.69220,-73.98763,Brooklyn,C6-4.5,33,302,34 WILLOUGHBY STREET,JAY STREET,PEARL STREET,SW,11201,Fulton Mall,Yes,N,DUMBO-Vinegar Hill-Downtown Brooklyn-Boerum Hill,82329,12/14/2017,02/12/2018,,,3001500019,3001100,"(40.69219583, -73.98762662)"
09/25/2017,LINK-021180,40.69490,-73.98699,Brooklyn,C6-4,33,302,80 Tech Place,Jay Street,Lawrence Street,SE,11201,MetroTech,Yes,N,DUMBO-Vinegar Hill-Downtown Brooklyn-Boerum Hill,82328,12/14/2017,02/12/2018,,,3001420050,3001100,"(40.69490376, -73.98698984)"
09/25/2017,LINK-021182,40.68984,-73.98025,Brooklyn,C6-4,35,302,80 Dekalb Ave,Hudson Ave,Rockwell Pl,SE,11201,MetroTech,Yes,N,Fort Greene,82325,12/14/2017,02/12/2018,,,3020940010,3003300,"(40.68983595912389, -73.98024957041605)"
09/15/2017,LINK-021184,40.68105,-73.96753,Brooklyn,M1-1,35,308,547 VANDERBILT AVENUE,PACIFIC STREET,ATLANTIC AVENUE,NE,11238,,No,N,Prospect Heights,82322,12/01/2017,01/30/2018,,,3011220071,3020300,"(40.68105309461695, -73.96752807629514)"
08/25/2017,LINK-021190,40.63391,-73.94897,Brooklyn,C2-4,45,314,1510 FLATBUSH AVENUE,EAST 29 STREET,HILLEL PLACE,SW,11210,Flatbush-Nostrand Junction,Yes,N,Flatbush,82243,10/13/2017,12/12/2017,,3205864,3075570047,3077400,"(40.6339091, -73.94897192)"
09/07/2017,LINK-021191,40.70328,-73.93260,Brooklyn,M1-2,34,301,997 FLUSHING AVENUE,BOGART STREET,FORREST STREET,NE,11206,,No,N,Bushwick North,82309,11/16/2017,01/15/2018,,3071648,3031250007,3045300,"(40.70328489, -73.93260275)"
10/02/2017,LINK-021197,40.69439,-73.99298,Brooklyn,C1-3,33,302,158 Montague St,Clinton St,Henry St,SW,11201,Montague Street,Yes,Y,Brooklyn Heights-Cobble Hill,82340,12/14/2017,02/12/2018,,,3002490039,3000502,"(40.694386100291844, -73.99297520682035)"
10/02/2017,LINK-021198,40.69456,-73.99364,Brooklyn,C1-3,33,302,142 Montague St,Henry St,Clinton St.,MIDBLOCK,11201,Montague Street,Yes,Y,Brooklyn Heights-Cobble Hill,82347,12/14/2017,02/12/2018,,,3002490030,3000502,"(40.69455988225752, -73.99364151453688)"
08/16/2017,LINK-021213,40.68457,-73.98098,Brooklyn,C2-4,33,302,500 Pacific Street,3rd AVENUE,4th AVENUE,SE,11217,Atlantic Avenue,Yes,N,DUMBO-Vinegar Hill-Downtown Brooklyn-Boerum Hill,82186,12/14/2017,02/12/2018,,,3001920001,3003900,"(40.68457088, -73.98097669)"
09/07/2017,LINK-021217,40.67830,-73.96852,Brooklyn,C1-4,35,308,631 VANDERBILT AVENUE,ST MARKS AVENUE,PROSPECT PLACE,SE,11238,,No,Y,Prospect Heights,82289,12/01/2017,01/30/2018,,,3011520011,3020500,"(40.67829848, -73.96852043)"
08/30/2017,LINK-021218,40.70139,-73.93871,Brooklyn,C2-4,34,304,832 FLUSHING AVENUE,Garden Street,Beaver Street,MIDBLOCK,11206,,No,N,Bushwick South,82265,11/16/2017,01/15/2018,,3071809,3031370056,3038900,"(40.70139018, -73.93871378)"
10/02/2017,LINK-021219,40.68988,-73.99338,Brooklyn,C2-3,39,306,194 Atlantic Avenue,Court St,Clinton St,MIDBLOCK,11201,Atlantic Avenue,Yes,Y,Carroll Gardens-Columbia Street-Red Hook,82402,12/05/2017,02/03/2018,,,3002867505,3004500,"(40.68987845949279, -73.99337704828707)"
09/07/2017,LINK-021223,40.70320,-73.92596,Brooklyn,C1-3,34,304,217 KNICKERBOCKER AVENUE,TROUTMAN STREET,STARR STREET,NE,11237,,No,N,Bushwick North,82304,11/16/2017,01/15/2018,,3072541,3031870008,3042700,"(40.70319909, -73.92596317)"
08/25/2017,LINK-021226,40.67697,-73.96922,Brooklyn,C1-4,35,308,646 VANDERBILT AVENUE,PARK PLACE,PROSPECT PLACE,NW,11238,,No,N,Prospect Heights,82245,12/01/2017,01/30/2018,,,3011580047,3016300,"(40.67696646, -73.9692235)"
08/16/2017,LINK-021235,40.68330,-73.97887,Brooklyn,C2-4,39,306,35 4th AVENUE,DEAN STREET,PACIFIC STREET,NE,11217,,No,N,Park Slope-Gowanus,82187,12/05/2017,02/03/2018,,,3009280001,3012901,"(40.68330374, -73.97887138)"
08/16/2017,LINK-021237,40.68415,-73.98141,Brooklyn,C2-4,33,302,71 3rd AVENUE,DEAN STREET,PACIFIC STREET,NE,11217,,No,N,DUMBO-Vinegar Hill-Downtown Brooklyn-Boerum Hill,82188,12/14/2017,02/12/2018,,,3001920001,3003900,"(40.68414846, -73.98141352)"
10/02/2017,LINK-021254,40.68926,-73.99134,Brooklyn,C2-4,33,302,238 Atlantic Avenue,Boerum Pl,Court St,MIDBLOCK,11201,Atlantic Avenue,Yes,N,DUMBO-Vinegar Hill-Downtown Brooklyn-Boerum Hill,82341,12/14/2017,02/12/2018,,,3002787501,3004300,"(40.68925831546948, -73.99133716162225)"
10/11/2017,LINK-021258,40.69275,-73.99215,Brooklyn,C5-2A,33,302,183 Joralemon Street,Court St,Clinton St,MIDBLOCK,11201,,No,N,Brooklyn Heights-Cobble Hill,82427,12/14/2017,02/12/2018,,,3002550012,3000900,"(40.69275192279502, -73.99215159315122)"
10/02/2017,LINK-021260,40.69226,-73.98953,Brooklyn,C5-4,33,302,250 Joralemon St,Brooklyn Bridge Blvd,Court Street,SW,11201,Court-Livingston-Schermerhorn,Yes,N,Brooklyn Heights-Cobble Hill,82346,12/14/2017,02/12/2018,,,3002660050,3000900,"(40.69225533, -73.98953396)"
10/11/2017,LINK-021261,40.69286,-73.99289,Brooklyn,C5-2A,33,302,165 JORALEMON STREET,CLINTON STREET,COURT STREET,NE,11201,,No,N,Brooklyn Heights-Cobble Hill,82424,12/14/2017,02/12/2018,,,3002550020,3000900,"(40.69285865716534, -73.99288740144374)"
10/02/2017,LINK-021269,40.68808,-73.98411,Brooklyn,C6-1,33,302,250 Schermerhorn Street,Schermerhorn St,State Street,SW,11217,Court-Livingston-Schermerhorn,Yes,N,DUMBO-Vinegar Hill-Downtown Brooklyn-Boerum Hill,82357,12/14/2017,02/12/2018,,,3001710026,3004100,"(40.68807515184572, -73.9841080809262)"
08/21/2017,LINK-021270,40.69848,-73.93775,Brooklyn,C8-2,34,304,871 BROADWAY,LEWIS AVENUE,BELVEDERE STREET,SE,11206,,No,N,Bushwick South,82215,11/16/2017,01/15/2018,,3256442,3031350005,3038900,"(40.69848325, -73.93775028)"
10/02/2017,LINK-021273,40.69470,-73.98322,Brooklyn,C6-4,35,302,325 Gold St,Johnson Street,Flatbush Avenue Ext.,SE,11201,MetroTech,Yes,N,DUMBO-Vinegar Hill-Downtown Brooklyn-Boerum Hill,82345,12/14/2017,02/12/2018,,,3020490008,3001500,"(40.69469701910375, -73.983220041045)"
09/25/2017,LINK-021275,40.68985,-73.98293,Brooklyn,C6-4.5,33,302,4 BOND STREET,Fulton Street,Dekalb Avenue,NW,11201,Fulton Mall,Yes,N,Fort Greene,82331,12/14/2017,02/12/2018,,,3001490034,3003300,"(40.689845885181434, -73.9829311889896)"
09/25/2017,LINK-021276,40.68990,-73.98213,Brooklyn,C6-4.5,33,302,14 Dekalb Ave,Flatbush Ave,Bond Ave,MIDBLOCK,11201,Fulton Mall,Yes,N,Fort Greene,82332,12/14/2017,02/12/2018,,,3001490026,3003300,"(40.68990178, -73.98212603)"
10/02/2017,LINK-021281,40.69571,-73.98328,Brooklyn,C6-4,35,302,280 Gold Street,Tillary St,Johnson St,SW,11201,,No,N,DUMBO-Vinegar Hill-Downtown Brooklyn-Boerum Hill,82355,12/14/2017,02/12/2018,,,3001330017,3001500,"(40.69571266661516, -73.9832813903821)"
08/21/2017,LINK-021282,40.69965,-73.93987,Brooklyn,C4-3,34,304,815 BROADWAY,FAYETTE STREET,ELLERY STREET,NE,11206,,No,N,Bushwick South,82216,11/16/2017,01/15/2018,,3071688,3031320003,3038900,"(40.69964667, -73.93987079)"
08/16/2017,LINK-021283,40.67495,-73.98784,Brooklyn,C8-2,39,306,232 3 STREET,3rd AVENUE,4th AVENUE,SE,11215,,No,N,Park Slope-Gowanus,82190,12/05/2017,02/03/2018,,,3009800008,3011900,"(40.674946813274765, -73.98783775204322)"
09/25/2017,LINK-021312,40.69225,-73.98428,Brooklyn,C6-4,33,302,199 DUFFIELD STREET,MYRTLE AVENUE,WILLOUGHBY STREET,NE,11201,MetroTech,Yes,N,DUMBO-Vinegar Hill-Downtown Brooklyn-Boerum Hill,82335,12/14/2017,02/12/2018,,,3020590001,3001500,"(40.692252205356496, -73.9842783740267)"
09/25/2017,LINK-021313,40.69215,-73.98354,Brooklyn,C6-4,33,302,135 WILLOUGHBY STREET,ALBEE SQUARE WEST,DUFFIELD STREET,NW,11201,MetroTech,Yes,N,DUMBO-Vinegar Hill-Downtown Brooklyn-Boerum Hill,82336,12/14/2017,02/12/2018,,,3020590001,3001500,"(40.69215058, -73.98353698)"
09/25/2017,LINK-021315,40.69471,-73.98401,Brooklyn,C6-1A,33,302,116 DUFFIELD STREET Enter Secondary Address as (162 FLATBUSH AVENUE EXT.),Tech Place,Myrtle Avenue,SW,11201,MetroTech,Yes,N,DUMBO-Vinegar Hill-Downtown Brooklyn-Boerum Hill,82337,12/14/2017,02/12/2018,,,3020470011,3001500,"(40.69471213885874, -73.98401373092622)"
08/16/2017,LINK-021294,40.67316,-73.98939,Brooklyn,C8-2,39,306,411 3rd AVENUE (Physical location is on 6th street),3rd AVENUE,4th AVENUE,SE,11215,,No,N,Park Slope-Gowanus,82191,12/05/2017,02/03/2018,,,3009920007,3011900,"(40.67315942, -73.98938754)"
08/21/2017,LINK-021297,40.70625,-73.95182,Brooklyn,C8-2,33,301,460 BROADWAY,Penn St,Rutledge St,SW,11211,,No,N,South Williamsburg,82220,11/16/2017,01/15/2018,,3060699,3022210023,3052900,"(40.70625079, -73.95181932)"
09/07/2017,LINK-021298,40.69984,-73.92027,Brooklyn,C4-3,37,304,408 KNICKERBOCKER AVENUE,STANHOPE STREET,HIMROD STREET,SW,11237,,No,N,Bushwick North,82301,11/16/2017,01/15/2018,,3074458,3032680043,3043100,"(40.69984414, -73.92027348)"
08/16/2017,LINK-021300,40.70088,-73.94149,Brooklyn,C4-3,34,301,785 FLUSHING AVENUE,BROADWAY,HUMBOLDT STREET,NE,11206,Graham Avenue,Yes,N,East Williamsburg,82193,11/16/2017,01/15/2018,,3326062,3031270001,3049100,"(40.70088, -73.94149)"
09/25/2017,LINK-021308,40.69258,-73.98823,Brooklyn,C5-4,33,302,372 PEARL STREET,PEARL STREET,WILLOUGHBY STREET,NW,11201,MetroTech,Yes,N,DUMBO-Vinegar Hill-Downtown Brooklyn-Boerum Hill,82327,12/14/2017,02/12/2018,,,3001407503,3001100,"(40.69258203124757, -73.98823140449485)"
09/25/2017,LINK-021310,40.69216,-73.98647,Brooklyn,C6-4.5,33,302,62 WILLOUGHBY STREET,LAWRENCE STREET,JAY STREET,SW,11201,MetroTech,Yes,N,DUMBO-Vinegar Hill-Downtown Brooklyn-Boerum Hill,82333,12/14/2017,02/12/2018,,,3001510029,3001100,"(40.69215750292658, -73.98647039045073)"
09/25/2017,LINK-021311,40.69226,-73.98533,Brooklyn,C6-4.5,33,302,372 Bridge Street,WILLOUGHBY STREET,MYRTLE PROMENADE,NW,11201,MetroTech,Yes,N,DUMBO-Vinegar Hill-Downtown Brooklyn-Boerum Hill,82334,12/14/2017,02/12/2018,,,3001480039,3001100,"(40.69225621279756, -73.98533083940566)"
09/25/2017,LINK-021317,40.69306,-73.98328,Brooklyn,C6-4,33,302,360 GOLD STREET,Myrtle Ave,Willoughby St,MIDBLOCK,11201,MetroTech,Yes,N,DUMBO-Vinegar Hill-Downtown Brooklyn-Boerum Hill,82338,12/14/2017,02/12/2018,,,3020600008,3001500,"(40.693058964243974, -73.98327996997529)"
09/25/2017,LINK-021321,40.69352,-73.98272,Brooklyn,C6-4,35,302,150 Myrtle Ave,Flatbush Ave,Fleet Place,SW,11201,Myrtle Avenue Brooklyn,Yes,N,DUMBO-Vinegar Hill-Downtown Brooklyn-Boerum Hill,82339,12/14/2017,02/12/2018,,,3020600015,3001500,"(40.69352224, -73.98272259)"
08/25/2017,LINK-021323,40.68521,-73.97638,Brooklyn,C6-4,35,302,40 HANSON PLACE,Fort Greene Place,St Felix Street,SW,11217,MetroTech,Yes,N,Fort Greene,82261,12/14/2017,02/12/2018,,,3020017501,3003500,"(40.685209900902194, -73.97638188244571)"
08/16/2017,LINK-021324,40.68407,-73.97836,Brooklyn,C6-2,39,302,590 Atlantic Avenue (Physical location on 4th avenue),Atlantic Ave,Pacific Street,SE,11217,North Flatbush,Yes,N,Park Slope-Gowanus,82194,12/14/2017,02/12/2018,,,3009270001,3012901,"(40.68407475, -73.97835689)"
09/07/2017,LINK-021326,40.68662,-73.97826,Brooklyn,C6-2,35,302,300 Ashland Place,Lafayette Avenue,Hanson Place,SW,11217,MetroTech,Yes,N,Fort Greene,82290,12/14/2017,02/12/2018,,,3021100003,3003500,"(40.68662365904319, -73.9782569070033)"
09/28/2017,LINK-021530,40.84562,-73.93631,Manhattan,C1-4,10,112,1300 St Nicholas Ave,W 175th Street,W 176th Street,NE,10033,,No,N,Washington Heights South,82380,02/16/2018,04/17/2018,,,1021330001,1026100,"(40.84562051, -73.93631011)"
09/28/2017,LINK-021531,40.84209,-73.93886,Manhattan,C2-4,10,112,4036 Broadway,W 170th st,W 169th St,SE,10032,,No,N,Washington Heights South,82360,02/16/2018,04/17/2018,,,1021260001,1025300,"(40.84209479, -73.93886215)"
09/28/2017,LINK-021800,40.80510,-73.93719,Manhattan,C4-4D,9,111,130 EAST 126 STREET,LEXINGTON AVENUE,PARK AVENUE,SW,10035,,No,N,East Harlem North,82372,02/02/2018,04/03/2018,,,1017740056,1019600,"(40.80510265, -73.93719105)"
01/09/2018,LINK-021532,40.85365,-73.93031,Manhattan,C1-4,10,112,571 W 188th STREET,AUDUBON AVENUE,ST NICHOLAS AVENUE,NE,10040,,No,N,Washington Heights North,82587,02/16/2018,04/17/2018,,,1021580033,1027700,"(40.853645655754164, -73.93031028453692)"
11/21/2017,LINK-021715,40.76893,-73.95813,Manhattan,C1-5,5,108,1398 2nd Ave,72nd St,73rd St,SW,10021,,No,N,Lenox Hill-Roosevelt Island,82508,01/10/2018,03/11/2018,,,1014477501,1012600,"(40.76893419657954, -73.958134972999)"
12/07/2017,LINK-021720,40.78455,-73.94705,Manhattan,C2-5,5,111,1869 2 AVENUE,EAST 96 STREET,EAST 97 STREET,MIDBLOCK,10029,,No,N,East Harlem South,82545,02/02/2018,04/03/2018,,,1016460023,1015602,"(40.78455399, -73.94704725)"
11/21/2017,LINK-021725,40.77715,-73.95241,Manhattan,C1-9,5,108,1633 2nd Ave,E 85 ST,E 84 ST,SW,10028,,No,N,Yorkville,82509,01/10/2018,03/11/2018,,,1015300028,1014601,"(40.77714586, -73.95241224)"
11/21/2017,LINK-021726,40.78374,-73.94766,Manhattan,C2-8,5,108,1837 2nd Ave,2nd Ave,3rd Ave,NW,10128,,No,N,Yorkville,82510,01/10/2018,03/11/2018,,,1015410021,1015601,"(40.78373941, -73.94765838)"
11/21/2017,LINK-021732,40.76680,-73.95997,Manhattan,C1-9,4,108,1311 2 AVENUE,E 69 ST,E 68 ST,NE,10065,,No,N,Lenox Hill-Roosevelt Island,82511,01/10/2018,03/11/2018,,,1014230010,1011800,"(40.76680272, -73.95996593)"
11/21/2017,LINK-021734,40.77056,-73.98395,Manhattan,C4-7,3,107,40 COLUMBUS AVENUE,WEST 61 STREET,WEST 62 STREET,MIDBLOCK,10023,Lincoln Square,Yes,N,Lincoln Square,82515,02/02/2018,04/03/2018,,,1011320001,1014500,"(40.77055621, -73.98394815)"
11/21/2017,LINK-021735,40.76753,-73.95951,Manhattan,C1-9,4,108,226 East 70 Street,2nd Avenue,3rd Avenue,NE,10021,,No,N,Lenox Hill-Roosevelt Island,82512,01/10/2018,03/11/2018,,,1014247501,1012600,"(40.76752558, -73.95951151)"
11/21/2017,LINK-021736,40.76936,-73.98480,Manhattan,C4-7,3,107,2 COLUMBUS AVENUE,WEST 59 STREET,WEST 60 STREET,SW,10023,,No,N,Lincoln Square,82519,02/02/2018,04/03/2018,,,1011317501,1014500,"(40.76936432, -73.98479693)"
09/28/2017,LINK-021737,40.78320,-73.95266,Manhattan,C1-8X,5,108,142 EAST 92 STREET,Lexington Ave,3 Ave,SE,10128,,No,N,Upper East Side-Carnegie Hill,82374,01/10/2018,03/11/2018,,,1015200050,1015801,"(40.783196, -73.952658)"
11/21/2017,LINK-021738,40.77670,-73.95279,Manhattan,C1-9,5,108,1623 2nd AVENUE,E 84 ST,E 85 ST,SW,10028,,No,N,Yorkville,82513,01/10/2018,03/11/2018,,,1015300021,1014601,"(40.77669755, -73.95278704)"
11/21/2017,LINK-021744,40.78125,-73.94946,Manhattan,C2-8,5,108,1749 2nd Ave,E 91 ST,E 92 ST,SW,10128,,No,N,Yorkville,82514,01/10/2018,03/11/2018,,,1015370022,1015400,"(40.781254419740065, -73.94945977262506)"
11/21/2017,LINK-021745,40.78178,-73.94928,Manhattan,C2-8,5,108,1763 2nd Avenue,2nd Ave,3rd Ave,SW,10128,,No,N,Yorkville,82520,01/10/2018,03/11/2018,,,1015370022,1015400,"(40.78178156660047, -73.94928023988115)"
11/21/2017,LINK-021746,40.76956,-73.95768,Manhattan,C1-9,5,108,1404 2nd AVENUE,E 73 ST,E 74 ST,SW,10021,,No,N,Lenox Hill-Roosevelt Island,82518,01/10/2018,03/11/2018,,,1014480001,1012600,"(40.769562948626955, -73.95767632459632)"
11/21/2017,LINK-021748,40.78248,-73.94857,Manhattan,C2-8,5,108,1802 2nd AVENUE,E 93 St,E 94 St,NW,10128,,No,N,Yorkville,82517,01/10/2018,03/11/2018,,,1015397501,1015400,"(40.78248289, -73.94857106)"
11/21/2017,LINK-021749,40.77003,-73.98448,Manhattan,C4-7,3,107,111 WEST 60 STREET,COLUMBUS AVENUE,10 AVENUE,SE,10023,Lincoln Square,Yes,N,Lincoln Square,82516,02/02/2018,04/03/2018,,,1011320001,1014500,"(40.77003295, -73.98447791)"
12/07/2017,LINK-021754,40.77759,-73.95213,Manhattan,C2-8A,5,108,1645 2 AVENUE,EAST 85 STREET,EAST 86 STREET,SE,10028,,No,N,Yorkville,82547,01/10/2018,03/11/2018,,,1015310028,1014601,"(40.777587, -73.95213313)"
09/28/2017,LINK-021761,40.78971,-73.94832,Manhattan,C1-5,8,111,126 EAST 102 STREET,Lexington Ave,Park Ave,SW,10029,,No,N,East Harlem South,82376,02/02/2018,04/03/2018,,,1016290059,1016600,"(40.789708, -73.948323)"
09/28/2017,LINK-021778,40.79105,-73.94737,Manhattan,C1-5,8,111,131 EAST 104 STREET,Lexington Ave,Park Ave,NW,10029,,No,N,East Harlem South,82369,02/02/2018,04/03/2018,,,1016320015,1016600,"(40.791054, -73.947371)"
09/28/2017,LINK-021782,40.79809,-73.94234,Manhattan,C1-4,8,111,135 EAST 115 STREET,LEXINGTON AVENUE,PARK AVENUE,NW,10029,,No,N,East Harlem North,82364,02/02/2018,04/03/2018,,,1016430015,1018200,"(40.79809105, -73.94233669)"
09/28/2017,LINK-021792,40.80054,-73.94004,Manhattan,C1-4,8,111,147 EAST 119 STREET,LEXINGTON AVENUE,3 AVENUE,NE,10035,,No,N,East Harlem North,82377,02/02/2018,04/03/2018,,,1017680021,1019600,"(40.80053996, -73.9400383)"
09/28/2017,LINK-021793,40.80106,-73.93976,Manhattan,C1-4,8,111,160 EAST 120 STREET,LEXINGTON AVENUE,PARK AVENUE,SE,10035,,No,N,East Harlem North,82365,02/02/2018,04/03/2018,,,1017680021,1019600,"(40.80105743, -73.93975846)"
09/28/2017,LINK-021799,40.80435,-73.93713,Manhattan,C4-4D,9,111,145 EAST 125 STREET,LEXINGTON AVENUE,3 AVENUE,NE,10035,,No,N,East Harlem North,82366,02/02/2018,04/03/2018,,,1017740020,1019600,"(40.80434771, -73.93713223)"
09/07/2017,LINK-022125,40.65223,-74.00679,Brooklyn,C2-4,38,307,3918 4 AVENUE,40 STREET,39 STREET,NW,11232,,No,N,Sunset Park West,82291,12/01/2017,01/30/2018,,,3007080042,3008400,"(40.652226461519, -74.006787869499)"
09/07/2017,LINK-022128,40.65171,-74.00734,Brooklyn,C2-4,38,307,4004 4th Ave,41st St,40th St,NW,11232,,No,N,Sunset Park West,82292,12/01/2017,01/30/2018,,,3007130020,3008200,"(40.65171375261666, -74.00733818672126)"
09/07/2017,LINK-022129,40.64946,-74.00968,Brooklyn,C2-4,38,307,4422 4th Ave,45 ST,44 ST,NW,11220,,No,N,Sunset Park West,82293,12/01/2017,01/30/2018,,,3007370046,3008000,"(40.64946398587837, -74.0096830007488)"
10/11/2017,LINK-022392,40.73836,-73.88447,Queens,M1-1,25,404,79-01 Queens Blvd,BARNWELL AVE,CORNISH AVE,NE,11373,,No,N,Elmhurst-Maspeth,82422,12/27/2017,02/25/2018,,,4015380010,4048500,"(40.73836495, -73.88446867)"
10/06/2017,LINK-022394,40.73809,-73.88254,Queens,C2-3,25,404,81-01 DONGAN AVENUE,Queens Blvd,Poyer St,NW,11373,,No,N,Elmhurst-Maspeth,82396,12/27/2017,02/25/2018,,,4015390001,4048500,"(40.738091, -73.882544)"
10/06/2017,LINK-022395,40.73777,-73.88131,Queens,C2-3,25,404,82-11 Queens Blvd,51 Ave,Van Loon St,NE,11373,,No,N,Elmhurst,82387,12/27/2017,02/25/2018,,,4015420001,4047300,"(40.73776661, -73.88130723)"
08/25/2017,LINK-023350,40.68090,-73.95428,Brooklyn,C2-4,36,303,1183 FULTON STREET,BEDFORD AVENUE,SPENCER PLACE,NE,11216,Bed-Stuy Gateway,Yes,N,Clinton Hill,82248,10/13/2017,12/12/2017,,3057469,3020000045,3022700,"(40.6809019176, -73.9542798545)"
08/25/2017,LINK-023351,40.68254,-73.96271,Brooklyn,C2-4,35,302,950 Fulton St,Cambridge Place,St James Place,MIDBLOCK,11238,Fulton Area,Yes,N,Clinton Hill,82249,12/14/2017,02/12/2018,,,3020140019,3020100,"(40.682535668131756, -73.96271274076253)"
11/29/2017,LINK-023352,40.80152,-73.95759,Manhattan,C1-4,9,110,2053 FREDERICK DOUGLASS BOULEVARD,WEST 111 STREET,WEST 112 STREET,MIDBLOCK,10026,,No,N,Central Harlem South,82577,02/16/2018,04/17/2018,,,1018460044,1019702,"(40.8015159481, -73.9575897199)"
11/29/2017,LINK-023356,40.78833,-73.94719,Manhattan,C1-5,8,111,1810 3 AVENUE,EAST 100 STREET,EAST 101 STREET,SW,10029,,No,N,East Harlem South,82529,02/02/2018,04/03/2018,,,1016281201,1016600,"(40.7883251254, -73.9471880729)"
09/15/2017,LINK-023359,40.67846,-73.91512,Brooklyn,C2-3,41,316,2082 FULTON STREET,SARATOGA AVENUE,THOMAS S BOYLAND STREET,MIDBLOCK,11233,,No,N,Ocean Hill,82323,11/16/2017,01/15/2018,,3042157,3015500001,3030100,"(40.6784554053, -73.9151210092)"
08/30/2017,LINK-023362,40.69466,-73.99056,Brooklyn,C6-1,33,302,324 CADMAN PLAZA WEST,PIERREPONT ST,JOHNSON ST,NE,11201,Court-Livingston-Schermerhorn,Yes,N,DUMBO-Vinegar Hill-Downtown Brooklyn-Boerum Hill,82284,12/14/2017,02/12/2018,,,3001390001,3001100,"(40.694656174536426, -73.990559352209)"
09/07/2017,LINK-023363,40.69517,-73.98856,Brooklyn,C6-4,33,302,259 ADAMS STREET,Johnson Street,Tillary Street,NE,11201,MetroTech,Yes,N,DUMBO-Vinegar Hill-Downtown Brooklyn-Boerum Hill,82296,12/14/2017,02/12/2018,,,3001280001,3001300,"(40.69516938189095, -73.98856390037747)"
08/25/2017,LINK-023364,40.69018,-73.98693,Brooklyn,C5-4,33,302,177 LIVINGSTON STREET,Gallatin Place,Hoyt Street,NE,11201,Fulton Mall,Yes,N,DUMBO-Vinegar Hill-Downtown Brooklyn-Boerum Hill,82253,12/14/2017,02/12/2018,,,3001567501,3003700,"(40.69018087647864, -73.9869319767771)"
08/25/2017,LINK-023365,40.68936,-73.98454,Brooklyn,C5-4,33,302,25 Elm Pl,Livingston Street,Fulton Street,NE,11201,Fulton Mall,Yes,N,DUMBO-Vinegar Hill-Downtown Brooklyn-Boerum Hill,82251,12/14/2017,02/12/2018,,,3001580001,3003700,"(40.68935631278674, -73.98453793903309)"
08/25/2017,LINK-023366,40.68755,-73.97769,Brooklyn,C6-1,35,302,622 FULTON STREET,St Felix Street,Ashland Place,SW,11217,Fulton Area,Yes,N,Fort Greene,82256,12/14/2017,02/12/2018,,,3021080001,3003300,"(40.6875468, -73.97769175)"
08/25/2017,LINK-023370,40.68635,-73.97935,Brooklyn,C6-2,33,302,378 Schermerhorn St,Flatbush Avenue,3rd Avenue,NW,11217,MetroTech,Yes,N,DUMBO-Vinegar Hill-Downtown Brooklyn-Boerum Hill,82250,12/14/2017,02/12/2018,,,3001740009,3003900,"(40.6863472638, -73.9793545076)"
10/02/2017,LINK-023625,40.68495,-73.97824,Brooklyn,C2-4,33,302,120 Flatbush Ave,4th Ave,State St,NW,11217,Atlantic Avenue,Yes,N,DUMBO-Vinegar Hill-Downtown Brooklyn-Boerum Hill,82344,12/14/2017,02/12/2018,,,3001807501,3003900,"(40.68494878, -73.97823701)"
10/02/2017,LINK-023629,40.68595,-73.97898,Brooklyn,C6-2,33,302,98 FLATBUSH AVENUE,SCHERMERHORN STREET,STATE STREET,MIDBLOCK,11217,MetroTech,Yes,N,DUMBO-Vinegar Hill-Downtown Brooklyn-Boerum Hill,82343,12/14/2017,02/12/2018,,,3001740018,3003900,"(40.68595228486603, -73.97898018163937)"
09/07/2017,LINK-023710,40.65115,-73.94110,Brooklyn,C2-2,45,317,3824 Church Avenue,E 39th Street,E 38th Street,SW,11203,,No,N,East Flatbush-Farragut,82297,01/10/2018,03/11/2018,,,3048920010,3085800,"(40.651149, -73.941099)"
09/07/2017,LINK-023711,40.65138,-73.93925,Brooklyn,C2-2,41,317,4023 Church Ave,Albany Ave,E 40 St,NW,11203,,No,N,East Flatbush-Farragut,82294,01/10/2018,03/11/2018,,,3048770033,3081400,"(40.651385, -73.939253)"
09/15/2017,LINK-023712,40.65139,-73.93656,Brooklyn,C2-2,45,317,4310 Church Avenue,TROY AVENUE,EAST 43 STREET,SW,11203,,No,N,East Flatbush-Farragut,82315,01/10/2018,03/11/2018,,,3048970007,3085800,"(40.651387692906944, -73.93656474603273)"
09/07/2017,LINK-023714,40.68554,-73.97837,Brooklyn,C6-2,35,302,113 FLATBUSH AVENUE,State St,Schermerhorn St,NW,11217,MetroTech,Yes,N,Fort Greene,82308,12/14/2017,02/12/2018,,,3021100003,3003500,"(40.68554008664636, -73.97837113185983)"
10/03/2017,LINK-023716,40.76899,-73.91219,Queens,C2-3,22,401,37-20 Astoria Blvd South,38 Street,37 Street,SW,11103,,No,N,Astoria,82419,12/01/2017,01/30/2018,,,4006530050,4006502,"(40.768987, -73.912191)"
11/29/2017,LINK-023782,40.80469,-73.95166,Manhattan,C1-4,9,110,1960 7th AVENUE,WEST 118 STREET,WEST 119 STREET,NW,10026,,No,N,Central Harlem South,82534,02/16/2018,04/17/2018,,,1019240029,1022000,"(40.8046929, -73.95165759)"
11/29/2017,LINK-023792,40.80866,-73.94737,Manhattan,C4-7,9,110,163 WEST 125 STREET,LENOX AVENUE,ADAM CLAYTON POWELL JR BOULEVARD,MIDBLOCK,10027,125th Street,Yes,N,Central Harlem South,82535,02/16/2018,04/17/2018,,,1019100001,1022200,"(40.8086645, -73.94737322)"
11/29/2017,LINK-023793,40.80945,-73.94913,Manhattan,C4-7,9,110,215 WEST 125 STREET,ADAM CLAYTON POWELL JR BOULEVARD,FREDERICK DOUGLASS BOULEVARD,MIDBLOCK,10027,125th Street,Yes,N,Central Harlem South,82536,02/16/2018,04/17/2018,,,1019310021,1022200,"(40.80944756504651, -73.94913392501678)"
11/29/2017,LINK-023794,40.80648,-73.95396,Manhattan,C1-4,9,110,2211 FREDERICK DOUGLASS BOULEVARD,WEST 119 STREET,WEST 120 STREET,NW,10026,,No,N,Central Harlem South,82528,02/16/2018,04/17/2018,,,1019460029,1025700,"(40.80648425, -73.95396445)"
11/29/2017,LINK-023795,40.80782,-73.94952,Manhattan,C2-4,9,110,201 WEST 123 STREET,ADAM CLAYTON POWELL JR BOULEVARD,FREDERICK DOUGLASS BOULEVARD,NW,10027,,No,N,Central Harlem South,82538,02/16/2018,04/17/2018,,,1019290029,1022200,"(40.80782002695343, -73.94952381358598)"
11/29/2017,LINK-023796,40.81355,-73.94519,Manhattan,C1-4,9,110,2244 ADAM CLAYTON POWELL JR BOULEVARD,WEST 132 STREET,WEST 133 STREET,NW,10027,,No,N,Central Harlem North-Polo Grounds,82537,02/16/2018,04/17/2018,,,1019380029,1022600,"(40.81355136, -73.94519057)"
11/29/2017,LINK-023797,40.81487,-73.94423,Manhattan,C1-4,9,110,2286 ADAM CLAYTON POWELL JR BOULEVARD,WEST 134 STREET,WEST 135 STREET,NE,10030,,No,N,Central Harlem North-Polo Grounds,82539,02/16/2018,04/17/2018,,,1019400129,1022800,"(40.81487062, -73.94422922)"
11/29/2017,LINK-023798,40.81617,-73.94328,Manhattan,C1-4,9,110,2320 ADAM CLAYTON POWELL JR BOULEVARD,WEST 136 STREET,WEST 137 STREET,NE,10030,,No,N,Central Harlem North-Polo Grounds,82540,02/16/2018,04/17/2018,,,1019420029,1022800,"(40.81616997, -73.94328166)"
11/29/2017,LINK-023799,40.81564,-73.94367,Manhattan,C1-4,9,110,2304 ADAM CLAYTON POWELL JR BOULEVARD,WEST 135 STREET,WEST 136 STREET,MIDBLOCK,10030,,No,N,Central Harlem North-Polo Grounds,82541,02/16/2018,04/17/2018,,,1019410031,1022800,"(40.8156372, -73.94367004)"
11/29/2017,LINK-023801,40.82334,-73.94142,Manhattan,C1-4,9,110,2738 FREDERICK DOUGLASS BOULEVARD,WEST 145 STREET,WEST 146 STREET,SE,10039,,No,N,Central Harlem North-Polo Grounds,82543,02/16/2018,04/17/2018,,,1020310003,1023200,"(40.82334035, -73.94142198)"
12/06/2017,LINK-023807,40.80129,-73.94770,Manhattan,C4-5X,9,110,27 WEST 116 STREET,5 AVENUE,MALCOLM X BOULEVARD,MIDBLOCK,10026,,No,N,Central Harlem South,82551,02/16/2018,04/17/2018,,,1016007502,1019000,"(40.80128631, -73.947704)"
10/06/2017,LINK-023809,40.81185,-73.92789,Bronx,M1-4/R7X,8,201,250 rider avenue,E 138th Street,E 139th Street,NE,10451,,No,N,Mott Haven-Port Morris,82395,03/09/2018,05/08/2018,,,2023330010,2005100,"(40.81184635, -73.92788614)"
10/06/2017,LINK-023871,40.73744,-73.88215,Queens,C1-2,25,404,81-08 QUEENS BOULEVARD,CODWISE PLACE,SIMONSON STREET,SE,11373,,No,N,Elmhurst-Maspeth,82388,12/27/2017,02/25/2018,,,4024740040,4047900,"(40.7374359264, -73.8821543668)"
10/06/2017,LINK-023872,40.73689,-73.87926,Queens,C2-2,25,404,84-04 Queens Blvd,VAN LOON ST,GRAND AVE,SE,11373,,No,N,Elmhurst,82389,12/27/2017,02/25/2018,,,4024770002,4047500,"(40.7368899713, -73.8792580969)"
11/08/2017,LINK-023875,40.74944,-73.86737,Queens,C1-4,21,403,98-01 Roosevelt Ave,39 Ave,98 St,NE,11368,,No,N,North Corona,82490,01/19/2018,03/20/2018,,,4017640024,4040900,"(40.7494394236, -73.8673731309)"
11/08/2017,LINK-023876,40.74955,-73.86635,Queens,C1-4,21,403,99-07 Roosevelt Av,99 St,National St,NE,11368,,No,N,North Corona,82492,01/19/2018,03/20/2018,,,4017650044,4040700,"(40.7495544972, -73.8663531557)"
11/08/2017,LINK-024305,40.82211,-73.89711,Bronx,C2-4,17,202,937 WESTCHESTER AVENUE,INTERVALE AVENUE,ROGERS PLACE,NW,10459,,No,N,Longwood,82495,03/09/2018,05/08/2018,,,2026990060,2012901,"(40.82210735, -73.89710558)"
11/08/2017,LINK-024307,40.82382,-73.89396,Bronx,C1-4,17,202,995C WESTCHESTER AVENUE,E. 165 ST,WESTCHESTER AVE,SW,10459,,No,N,Longwood,82501,03/09/2018,05/08/2018,,,2027150049,2012901,"(40.82381955, -73.89396079)"
11/08/2017,LINK-024308,40.82450,-73.89289,Bronx,C1-4,17,202,1031 WESTCHESTER AVENUE,EAST 165 STREET,SIMPSON STREET,NE,10459,Southern Boulevard,Yes,N,Hunts Point,82502,03/09/2018,05/08/2018,,,2027270001,2012701,"(40.82450311, -73.8928854)"
12/12/2017,LINK-024311,40.82610,-73.92045,Bronx,C6-2,16,204,236 EAST 161 STREET,SHERMAN AVE,CONCOURSE VILLAGE EAST,SW,10451,161st Street,Yes,N,East Concourse-Concourse Village,82560,02/16/2018,04/17/2018,,,2024430090,2006100,"(40.82610181, -73.92045196)"
11/08/2017,LINK-024723,40.82012,-73.91604,Bronx,C1-4,17,201,707 Melrose Ave,E. 155 STREET,E.154 STREET,SW,10455,,No,N,Melrose South-Mott Haven North,82496,03/09/2018,05/08/2018,,,2024010022,2006700,"(40.8201219701967, -73.91604348098565)"
